0 PSLV DEB
1 35347U 01049QF  13283.62743027  .00008833  00000-0  13827-2 0  5467
2 35347 098.3855 061.0830 0050391 115.4688 245.2242 14.71923715544498
0 PSLV DEB
1 35347U 01049QF  13283.63963115  .00015374  00000-0  24102-2 0  5466
2 35347 098.3867 061.0985 0049484 115.3042 309.9954 14.71934203544500
0 PSLV DEB
1 35347U 01049QF  13285.33256574  .00011118  00000-0  17446-2 0  5475
2 35347 098.3864 062.8430 0049697 109.8285 281.0496 14.71975307544741
0 PSLV DEB
1 35347U 01049QF  13290.17670431  .00015228  00000-0  23784-2 0  5484
2 35347 098.3881 067.8388 0049648 094.5636 031.6488 14.72093114545461
0 PSLV DEB
1 35347U 01049QF  13292.33370269  .00013178  00000-0  20574-2 0  5497
2 35347 098.3887 070.0634 0049565 087.7340 302.9947 14.72151943545774
